IRIDIUM 65 [+]          
1 25288U 98021D   15365.36401405  .00000315  00000-0  10532-3 0  9991
2 25288  86.3973  87.0423 0001950  96.2170 263.9248 14.34221032928507
IRIDIUM 66 [+]          
1 25289U 98021E   15365.38052014  .00000329  00000-0  11044-3 0  9996
2 25289  86.3972  86.9432 0002049  95.3116 317.3407 14.34221878928504
IRIDIUM 67 [+]          
1 25290U 98021F   15365.37669086  .00000333  00000-0  11182-3 0  9998
2 25290  86.3974  87.0734 0002094  96.7478 263.3956 14.34222865928518
IRIDIUM 68 [+]          
1 25291U 98021G   15365.59234457  .00000319  00000-0  10674-3 0  9992
2 25291  86.3975  87.0919 0002119  94.6419 265.5019 14.34222511928517
IRIDIUM 69 [-]          
1 25319U 98026A   15365.35423269  .00000253  00000-0  76361-4 0  9996
2 25319  86.4012 110.3119 0001577 158.4468 259.7767 14.38532480926294
IRIDIUM 71 [-]          
1 25320U 98026B   15365.36064067  .00000210  00000-0  61654-4 0  9998
2 25320  86.3994 106.4582 0000825  21.6402  41.4200 14.38960954926703
IRIDIUM 70 [+]          
1 25342U 98032A   15365.35184172  .00000300  00000-0  10016-3 0  9993
2 25342  86.3980  87.4089 0002020  93.8908 334.3869 14.34223002922582
IRIDIUM 72 [+]          
1 25343U 98032B   15365.33885362  .00000311  00000-0  10406-3 0  9996
2 25343  86.3973  87.0609 0002065  96.3391 330.3862 14.34223039922581
IRIDIUM 73 [-]          
1 25344U 98032C   15365.61529957  .00000269  00000-0  65892-4 0  9995
2 25344  86.4427  68.4345 0002787  83.6504  28.5115 14.48869830930297
IRIDIUM 74 [S]          
1 25345U 98032D   15365.31858456  .00000387  00000-0  10975-3 0  9994
2 25345  86.4485  87.3976 0002133 101.5892 321.8806 14.42966760925763
IRIDIUM 75 [+]          
1 25346U 98032E   15365.34540208  .00000314  00000-0  10521-3 0  9998
2 25346  86.3976  87.2915 0002084  96.4427 331.3086 14.34221572923154
IRIDIUM 3 [+]           
1 25431U 98048A   15365.46657277  .00000315  00000-0  10551-3 0  9992
2 25431  86.3986 118.8411 0001904  94.9573 318.4926 14.34214223909111
IRIDIUM 76 [+]          
1 25432U 98048B   15365.48438093  .00000292  00000-0  97170-4 0  9995
2 25432  86.3983 118.6052 0002097  92.9916 314.1637 14.34214555909100
IRIDIUM 82 [+]          
1 25467U 98051A   15365.58410601  .00000305  00000-0  10168-3 0  9999
2 25467  86.3987 245.1318 0001765  92.9988 267.1410 14.34215550910130
IRIDIUM 81 [+]          
1 25468U 98051B   15365.22891256  .00000248  00000-0  81339-4 0  9995
2 25468  86.3969 244.9291 0002078  89.0076 271.1358 14.34216660906304
IRIDIUM 80 [+]          
1 25469U 98051C   15365.23218786  .00000208  00000-0  67155-4 0  9994
2 25469  86.3972 245.1904 0002147  85.8909  29.3579 14.34214088906309
IRIDIUM 77 [+]          
1 25471U 98051E   15365.31251081  .00000241  00000-0  78889-4 0  9994
2 25471  86.3962 244.7800 0001985  82.2717  54.6967 14.34217813911518
IRIDIUM 2 [-]           
1 25527U 98066A   15365.53630524  .00004047  00000-0  21959-3 0  9992
2 25527  85.5308 346.7391 0007366 242.1740 257.3225 15.14233412937053
IRIDIUM 86 [+]          
1 25528U 98066B   15365.59332539  .00000023  00000-0  97822-6 0  9999
2 25528  86.3953 212.8527 0001793  83.1920 276.9480 14.34222489902880
IRIDIUM 84 [+]          
1 25530U 98066D   15365.55526486  .00000054  00000-0  12171-4 0  9990
2 25530  86.3955 213.0243 0002017  88.4648 271.6778 14.34219509900517
IRIDIUM 83 [+]          
1 25531U 98066E   15365.58697450  .00000034  00000-0  51887-5 0  9990
2 25531  86.3957 213.1143 0002013  88.1523 271.9903 14.34221855897879
IRIDIUM 20 [+]          
1 25577U 98074A   15365.43721036  .00000312  00000-0  10437-3 0  9994
2 25577  86.3981 118.5538 0001990  97.1752 262.9670 14.34214512891933
IRIDIUM 11 [+]          
1 25578U 98074B   15365.39186036  .00000288  00000-0  95626-4 0  9991
2 25578  86.3980 118.7795 0001916 100.7505 319.9347 14.34214415900897
IRIDIUM 14 [S]          
1 25777U 99032A   15365.35966869  .00000317  00000-0  10601-3 0  9995
2 25777  86.3975  87.1245 0001967  94.6711 308.5052 14.34221984878167
IRIDIUM 21 [+]          
1 25778U 99032B   15365.31961868  .00000339  00000-0  11387-3 0  9992
2 25778  86.3975  87.1662 0002241  95.6843 264.4608 14.34218976871598
IRIDIUM 91 [+]          
1 27372U 02005A   15365.57666189  .00000157  00000-0  49096-4 0  9991
2 27372  86.3993 150.8483 0002019 102.5926 305.0039 14.34212607735147
IRIDIUM 90 [S]          
1 27373U 02005B   15365.56898565  .00000064  00000-0  13212-4 0  9994
2 27373  86.4469 213.0847 0002072  78.2776 281.8657 14.42943059734400
IRIDIUM 94 [S]          
1 27374U 02005C   15365.47776525  .00000298  00000-0  99528-4 0  9999
2 27374  86.3982 118.8634 0002285  67.1052 338.6653 14.34214541739451
IRIDIUM 95 [+]          
1 27375U 02005D   15365.46597459  .00000152  00000-0  47201-4 0  9996
2 27375  86.3992 150.6785 0002035  91.4901 268.6528 14.34212661734415
IRIDIUM 96 [S]          
1 27376U 02005E   15365.51378944  .00000013  00000-0 -25850-5 0  9993
2 27376  86.3998 182.1027 0003490  83.1718 276.9874 14.34219716739623
IRIDIUM 97 [+]          
1 27450U 02031A   15365.55183139  .00000013  00000-0 -24631-5 0  9995
2 27450  86.3963 181.9600 0002036  96.9499 263.1928 14.34219631713744
IRIDIUM 98 [S]          
1 27451U 02031B   15365.61427895  .00000247  00000-0  81268-4 0  9999
2 27451  86.3963 245.2248 0002063  90.4161 294.4964 14.34215407714826
